[{"OBJECT_NAME":"YUNHAI-2 01D","OBJECT_ID":"2018-112D","EPOCH":"2026-03-09T23:06:26.804736","MEAN_MOTION":14.28986233,"ECCENTRICITY":0.00157828,"INCLINATION":50.0122,"RA_OF_ASC_NODE":348.6213,"ARG_OF_PERICENTER":356.8631,"MEAN_ANOMALY":3.2183,"EPHEMERIS_TYPE":0,"CLASSIFICATION_TYPE":"U","NORAD_CAT_ID":43912,"ELEMENT_SET_NO":999,"REV_AT_EPOCH":37339,"BSTAR":0.00013763161,"MEAN_MOTION_DOT":1.89e-6,"MEAN_MOTION_DDOT":0},{"OBJECT_NAME":"CZ-6A DEB","OBJECT_ID":"2024-140YS","EPOCH":"2026-03-09T02:26:18.859488","MEAN_MOTION":14.18344805,"ECCENTRICITY":0.00542783,"INCLINATION":89.006,"RA_OF_ASC_NODE":286.7948,"ARG_OF_PERICENTER":168.5131,"MEAN_ANOMALY":191.7311,"EPHEMERIS_TYPE":0,"CLASSIFICATION_TYPE":"U","NORAD_CAT_ID":61425,"ELEMENT_SET_NO":999,"REV_AT_EPOCH":7990,"BSTAR":0.00015738805,"MEAN_MOTION_DOT":3.43e-6,"MEAN_MOTION_DDOT":0}]
